start=new Date('2021-11-29T00:00:00.000Z').valueOf();
sats=[{"MEAN_MOTION":"15.72525182","OBJECT_ID":"2021-024BG","CLASSIFICATION_TYPE":"U","MEAN_ELEMENT_THEORY":"SGP4","PERIOD":"91.572","APOAPSIS":"356.900","NORAD_CAT_ID":"48031","OBJECT_TYPE":"PAYLOAD","BSTAR":"-0.00508590000000","RCS_SIZE":"LARGE","PERIAPSIS":"346.469","MEAN_MOTION_DDOT":"0.0000000000000","SITE":"AFETR","ARG_OF_PERICENTER":"287.4240","REF_FRAME":"TEME","REV_AT_EPOCH":"369","ELEMENT_SET_NO":"999","GP_ID":"190687028","DECAY_DATE":null,"TLE_LINE1":"1 48031U 21024BG  21332.91668981 -.00645422  00000-0 -50859-2 0  9998","FILE":"3226391","MEAN_ANOMALY":"197.6362","RA_OF_ASC_NODE":"44.3093","LAUNCH_DATE":"2021-03-24","MEAN_MOTION_DOT":"-0.00645422","ECCENTRICITY":"0.00077500","COUNTRY_CODE":"US","SEMIMAJOR_AXIS":"6729.820","TLE_LINE2":"2 48031  53.0544  44.3093 0007750 287.4240 197.6362 15.72525182  3698","EPHEMERIS_TYPE":"0","CENTER_NAME":"EARTH","TIME_SYSTEM":"UTC","INCLINATION":"53.0544","OBJECT_NAME":"STARLINK-2267","EPOCH":"2021-11-28T22:00:01.999584"},{"INCLINATION":"53.0545","TIME_SYSTEM":"UTC","OBJECT_NAME":"STARLINK-2297","EPOCH":"2021-11-28T22:00:01.999584","EPHEMERIS_TYPE":"0","CENTER_NAME":"EARTH","SEMIMAJOR_AXIS":"6718.771","TLE_LINE2":"2 48032  53.0545  44.2695 0007117 277.9721 251.6966 15.76405842  3697","MEAN_MOTION_DOT":"0.00195119","LAUNCH_DATE":"2021-03-24","COUNTRY_CODE":"US","ECCENTRICITY":"0.00071170","RA_OF_ASC_NODE":"44.2695","MEAN_ANOMALY":"251.6966","FILE":"3226391","DECAY_DATE":null,"TLE_LINE1":"1 48032U 21024BH  21332.91668981  .00195119  00000-0  11842-2 0  9999","REV_AT_EPOCH":"369","GP_ID":"190685778","ELEMENT_SET_NO":"999","PERIAPSIS":"335.854","REF_FRAME":"TEME","SITE":"AFETR","ARG_OF_PERICENTER":"277.9721","MEAN_MOTION_DDOT":"0.0000000000000","BSTAR":"0.00118420000000","RCS_SIZE":"LARGE","OBJECT_TYPE":"PAYLOAD","NORAD_CAT_ID":"48032","PERIOD":"91.347","MEAN_ELEMENT_THEORY":"SGP4","APOAPSIS":"345.417","OBJECT_ID":"2021-024BH","MEAN_MOTION":"15.76405842","CLASSIFICATION_TYPE":"U"},{"TLE_LINE2":"2 48033  53.0532 143.3352 0001318  81.6578 278.4561 15.06512418 39218","SEMIMAJOR_AXIS":"6925.004","CENTER_NAME":"EARTH","EPHEMERIS_TYPE":"0","OBJECT_NAME":"STARLINK-2286","EPOCH":"2021-11-28T18:01:09.940800","TIME_SYSTEM":"UTC","INCLINATION":"53.0532","TLE_LINE1":"1 48033U 21024BJ  21332.75080950 -.00052266  00000-0 -35051-2 0  9991","DECAY_DATE":null,"FILE":"3226391","MEAN_ANOMALY":"278.4561","RA_OF_ASC_NODE":"143.3352","COUNTRY_CODE":"US","ECCENTRICITY":"0.00013180","MEAN_MOTION_DOT":"-0.00052266","LAUNCH_DATE":"2021-03-24","RCS_SIZE":"LARGE","BSTAR":"-0.00350510000000","MEAN_MOTION_DDOT":"0.0000000000000","SITE":"AFETR","ARG_OF_PERICENTER":"81.6578","REF_FRAME":"TEME","PERIAPSIS":"545.956","ELEMENT_SET_NO":"999","GP_ID":"190686028","REV_AT_EPOCH":"3921","CLASSIFICATION_TYPE":"U","MEAN_MOTION":"15.06512418","OBJECT_ID":"2021-024BJ","APOAPSIS":"547.782","PERIOD":"95.585","MEAN_ELEMENT_THEORY":"SGP4","NORAD_CAT_ID":"48033","OBJECT_TYPE":"PAYLOAD"},{"TIME_SYSTEM":"UTC","INCLINATION":"53.0552","EPOCH":"2021-11-28T21:38:53.241504","OBJECT_NAME":"STARLINK-2288","EPHEMERIS_TYPE":"0","CENTER_NAME":"EARTH","SEMIMAJOR_AXIS":"6925.371","TLE_LINE2":"2 48034  53.0552 142.7613 0002097  87.3803 272.7426 15.06392538 39231","LAUNCH_DATE":"2021-03-24","MEAN_MOTION_DOT":"0.00001002","COUNTRY_CODE":"US","ECCENTRICITY":"0.00020970","MEAN_ANOMALY":"272.7426","RA_OF_ASC_NODE":"142.7613","FILE":"3226391","DECAY_DATE":null,"TLE_LINE1":"1 48034U 21024BK  21332.90200511  .00001002  00000-0  86160-4 0  9995","REV_AT_EPOCH":"3923","ELEMENT_SET_NO":"999","GP_ID":"190686280","PERIAPSIS":"545.784","SITE":"AFETR","ARG_OF_PERICENTER":"87.3803","MEAN_MOTION_DDOT":"0.0000000000000","REF_FRAME":"TEME","BSTAR":"0.00008616000000","RCS_SIZE":"LARGE","OBJECT_TYPE":"PAYLOAD","NORAD_CAT_ID":"48034","PERIOD":"95.593","MEAN_ELEMENT_THEORY":"SGP4","APOAPSIS":"548.689","MEAN_MOTION":"15.06392538","OBJECT_ID":"2021-024BK","CLASSIFICATION_TYPE":"U"},{"OBJECT_TYPE":"PAYLOAD","NORAD_CAT_ID":"48035","PERIOD":"90.947","MEAN_ELEMENT_THEORY":"SGP4","APOAPSIS":"323.994","OBJECT_ID":"2021-024BL","MEAN_MOTION":"15.83334267","CLASSIFICATION_TYPE":"U","REV_AT_EPOCH":"369","GP_ID":"190686529","ELEMENT_SET_NO":"999","PERIAPSIS":"318.048","REF_FRAME":"TEME","SITE":"AFETR","MEAN_MOTION_DDOT":"0.0000000000000","ARG_OF_PERICENTER":"278.5645","BSTAR":"0.00213620000000","RCS_SIZE":"LARGE","LAUNCH_DATE":"2021-03-24","MEAN_MOTION_DOT":"0.00500542","ECCENTRICITY":"0.00044380","COUNTRY_CODE":"US","RA_OF_ASC_NODE":"44.0029","MEAN_ANOMALY":"23.2465","FILE":"3226391","DECAY_DATE":null,"TLE_LINE1":"1 48035U 21024BL  21332.91668981  .00500542  00000-0  21362-2 0  9990","INCLINATION":"53.0546","TIME_SYSTEM":"UTC","OBJECT_NAME":"STARLINK-2287","EPOCH":"2021-11-28T22:00:01.999584","EPHEMERIS_TYPE":"0","CENTER_NAME":"EARTH","SEMIMAJOR_AXIS":"6699.156","TLE_LINE2":"2 48035  53.0546  44.0029 0004438 278.5645  23.2465 15.83334267  3692"},{"NORAD_CAT_ID":"48036","OBJECT_TYPE":"PAYLOAD","OBJECT_ID":"2021-024BM","MEAN_MOTION":"15.06393563","CLASSIFICATION_TYPE":"U","PERIOD":"95.593","MEAN_ELEMENT_THEORY":"SGP4","APOAPSIS":"548.629","REV_AT_EPOCH":"3921","GP_ID":"190685279","ELEMENT_SET_NO":"999","BSTAR":"0.00007100000000","RCS_SIZE":"LARGE","PERIAPSIS":"545.838","REF_FRAME":"TEME","ARG_OF_PERICENTER":"90.0268","SITE":"AFETR","MEAN_MOTION_DDOT":"0.0000000000000","RA_OF_ASC_NODE":"143.3220","MEAN_ANOMALY":"270.0951","LAUNCH_DATE":"2021-03-24","MEAN_MOTION_DOT":"0.00000776","COUNTRY_CODE":"US","ECCENTRICITY":"0.00020150","DECAY_DATE":null,"TLE_LINE1":"1 48036U 21024BM  21332.77667796  .00000776  00000-0  71000-4 0  9998","FILE":"3226391","EPHEMERIS_TYPE":"0","CENTER_NAME":"EARTH","INCLINATION":"53.0536","TIME_SYSTEM":"UTC","OBJECT_NAME":"STARLINK-2295","EPOCH":"2021-11-28T18:38:24.975744","SEMIMAJOR_AXIS":"6925.368","TLE_LINE2":"2 48036  53.0536 143.3220 0002015  90.0268 270.0951 15.06393563 39213"},{"SEMIMAJOR_AXIS":"6925.363","TLE_LINE2":"2 48092  53.0549 268.9946 0002698  50.7081 309.4147 15.06395203 38026","INCLINATION":"53.0549","TIME_SYSTEM":"UTC","OBJECT_NAME":"STARLINK-2048","EPOCH":"2021-11-28T14:56:05.206272","EPHEMERIS_TYPE":"0","CENTER_NAME":"EARTH","FILE":"3226391","DECAY_DATE":null,"TLE_LINE1":"1 48092U 21027A   21332.62228248  .00000019  00000-0  20240-4 0  9992","MEAN_MOTION_DOT":"0.00000019","LAUNCH_DATE":"2021-04-07","COUNTRY_CODE":"US","ECCENTRICITY":"0.00026980","RA_OF_ASC_NODE":"268.9946","MEAN_ANOMALY":"309.4147","PERIAPSIS":"545.360","REF_FRAME":"TEME","ARG_OF_PERICENTER":"50.7081","SITE":"AFETR","MEAN_MOTION_DDOT":"0.0000000000000","BSTAR":"0.00002024000000","RCS_SIZE":"LARGE","REV_AT_EPOCH":"3802","GP_ID":"190686786","ELEMENT_SET_NO":"999","PERIOD":"95.592","MEAN_ELEMENT_THEORY":"SGP4","APOAPSIS":"549.097","OBJECT_ID":"2021-027A","MEAN_MOTION":"15.06395203","CLASSIFICATION_TYPE":"U","OBJECT_TYPE":"PAYLOAD","NORAD_CAT_ID":"48092"},{"RA_OF_ASC_NODE":"333.5513","MEAN_ANOMALY":"303.5471","COUNTRY_CODE":"US","ECCENTRICITY":"0.00018050","MEAN_MOTION_DOT":"0.00001829","LAUNCH_DATE":"2021-04-07","TLE_LINE1":"1 48093U 21027B   21332.72501843  .00001829  00000-0  14167-3 0  9999","DECAY_DATE":null,"FILE":"3226391","CENTER_NAME":"EARTH","EPHEMERIS_TYPE":"0","OBJECT_NAME":"STARLINK-2404","EPOCH":"2021-11-28T17:24:01.592352","INCLINATION":"53.0569","TIME_SYSTEM":"UTC","TLE_LINE2":"2 48093  53.0569 333.5513 0001805  56.5691 303.5471 15.06401058 37130","SEMIMAJOR_AXIS":"6925.345","NORAD_CAT_ID":"48093","OBJECT_TYPE":"PAYLOAD","CLASSIFICATION_TYPE":"U","OBJECT_ID":"2021-027B","MEAN_MOTION":"15.06401058","APOAPSIS":"548.460","PERIOD":"95.592","MEAN_ELEMENT_THEORY":"SGP4","GP_ID":"190687035","ELEMENT_SET_NO":"999","REV_AT_EPOCH":"3713","RCS_SIZE":"LARGE","BSTAR":"0.00014167000000","REF_FRAME":"TEME","MEAN_MOTION_DDOT":"0.0000000000000","SITE":"AFETR","ARG_OF_PERICENTER":"56.5691","PERIAPSIS":"545.960"},{"FILE":"3226391","DECAY_DATE":null,"TLE_LINE1":"1 48094U 21027C   21332.76190802  .00000696  00000-0  65626-4 0  9991","MEAN_MOTION_DOT":"0.00000696","LAUNCH_DATE":"2021-04-07","COUNTRY_CODE":"US","ECCENTRICITY":"0.00016320","MEAN_ANOMALY":"296.7473","RA_OF_ASC_NODE":"343.3894","SEMIMAJOR_AXIS":"6925.348","TLE_LINE2":"2 48094  53.0553 343.3894 0001632  63.3683 296.7473 15.06400153 37006","TIME_SYSTEM":"UTC","INCLINATION":"53.0553","EPOCH":"2021-11-28T18:17:08.852928","OBJECT_NAME":"STARLINK-2412","EPHEMERIS_TYPE":"0","CENTER_NAME":"EARTH","PERIOD":"95.592","MEAN_ELEMENT_THEORY":"SGP4","APOAPSIS":"548.343","MEAN_MOTION":"15.06400153","OBJECT_ID":"2021-027C","CLASSIFICATION_TYPE":"U","OBJECT_TYPE":"PAYLOAD","NORAD_CAT_ID":"48094","PERIAPSIS":"546.083","SITE":"AFETR","ARG_OF_PERICENTER":"63.3683","MEAN_MOTION_DDOT":"0.0000000000000","REF_FRAME":"TEME","BSTAR":"0.00006562600000","RCS_SIZE":"LARGE","REV_AT_EPOCH":"3700","ELEMENT_SET_NO":"999","GP_ID":"190685785"},{"PERIOD":"95.592","MEAN_ELEMENT_THEORY":"SGP4","APOAPSIS":"548.422","OBJECT_ID":"2021-027D","MEAN_MOTION":"15.06395644","CLASSIFICATION_TYPE":"U","OBJECT_TYPE":"PAYLOAD","NORAD_CAT_ID":"48095","PERIAPSIS":"546.032","REF_FRAME":"TEME","MEAN_MOTION_DDOT":"0.0000000000000","SITE":"AFETR","ARG_OF_PERICENTER":"53.2639","BSTAR":"-0.00002363600000","RCS_SIZE":"LARGE","REV_AT_EPOCH":"3701","GP_ID":"190686035","ELEMENT_SET_NO":"999","FILE":"3226391","DECAY_DATE":null,"TLE_LINE1":"1 48095U 21027D   21332.76928346 -.00000634  00000-0 -23636-4 0  9993","MEAN_MOTION_DOT":"-0.00000634","LAUNCH_DATE":"2021-04-07","COUNTRY_CODE":"US","ECCENTRICITY":"0.00017260","RA_OF_ASC_NODE":"343.3622","MEAN_ANOMALY":"306.8508","SEMIMAJOR_AXIS":"6925.362","TLE_LINE2":"2 48095  53.0560 343.3622 0001726  53.2639 306.8508 15.06395644 37018","INCLINATION":"53.0560","TIME_SYSTEM":"UTC","OBJECT_NAME":"STARLINK-2414","EPOCH":"2021-11-28T18:27:46.090944","EPHEMERIS_TYPE":"0","CENTER_NAME":"EARTH"}];
